stk.v.11.0

# WrittenBy    STK_v11.4.1

BEGIN Ephemeris

    NumberOfEphemerisPoints		 17307

    ScenarioEpoch		 1 Jan 2018 00:00:00.000000

# Epoch in JDate format: 2458119.50000000000000
# Epoch in YYDDD format:   18001.00000000000000


    InterpolationMethod		 Lagrange

    InterpolationSamplesM1		 5

    CentralBody		 Earth

    CoordinateSystem		 Fixed

    BEGIN SegmentBoundaryTimes

        0.0000000000000000e+00
        1.9425215232000002e+04
        2.5649405568000002e+04
        8.3698215840000004e+04
        1.6666027516800002e+05
        2.5560220032000000e+05
        3.3872520988799998e+05
        4.2762065702400001e+05
        5.1037414416000003e+05
        5.7092307926400006e+05
        6.8888318400000001e+05
        7.4291215478400001e+05
        8.6097828527999995e+05
        9.4422074198399996e+05

    END SegmentBoundaryTimes

# Time of first point: 1 Jan 2018 00:00:00.000000000 UTCG = 2458119.50000000000000 JDate = 18001.00000000000000 YYDDD

    EphemerisTimePosVel		

1.7490000000000000e+05 5.9638190794934072e+06 1.0669418497454335e+06 -3.6757251582329310e+06 -3.4718010497660430e+03 -2.3442061380593609e+03 -6.3220435514429291e+03
1.7496000000000000e+05 5.7430756471916186e+06 9.2519182347286632e+05 -4.0473692868077718e+06 -3.8838689547501526e+03 -2.3786033444612990e+03 -6.0619266883955206e+03
1.7502000000000000e+05 5.4980648705011299e+06 7.8177119734870084e+05 -4.4026704850501735e+06 -4.2804245626077754e+03 -2.3998981931334051e+03 -5.7774649850449850e+03
1.7508000000000000e+05 5.2297684920103066e+06 6.3746443673547707e+05 -4.7402027859501317e+06 -4.6597790367234811e+03 -2.4081576990296394e+03 -5.4698313843512369e+03
1.7514000000000000e+05 4.9392673881756915e+06 4.9304996668371651e+05 -5.0586133271990726e+06 -5.0203178476986895e+03 -2.4035159803783863e+03 -5.1402889457640667e+03
1.7520000000000000e+05 4.6277369148436077e+06 3.4929619064108422e+05 -5.3566275849748421e+06 -5.3605072611429478e+03 -2.3861727160636483e+03 -4.7901850345020057e+03
1.7526000000000000e+05 4.2964418775825389e+06 2.0695761132685037e+05 -5.6330542524105050e+06 -5.6789003559039720e+03 -2.3563912849017943e+03 -4.4209452885852552e+03
1.7532000000000000e+05 3.9467311551299170e+06 6.6771072150146181e+04 -5.8867897507837582e+06 -5.9741425675687278e+03 -2.3144966100843121e+03 -4.0340674087435846e+03
1.7538000000000000e+05 3.5800320043841638e+06 -7.0547863865742154e+04 -6.1168223640463753e+06 -6.2449767580552680e+03 -2.2608727327685419e+03 -3.6311148125192353e+03
1.7544000000000000e+05 3.1978440751673519e+06 -2.0430838213288446e+05 -6.3222359896471808e+06 -6.4902478172401316e+03 -2.1959601389521658e+03 -3.2137101893477170e+03
1.7550000000000000e+05 2.8017331625067466e+06 -3.3384771743575722e+05 -6.5022135006454000e+06 -6.7089068066938344e+03 -2.1202528634105724e+03 -2.7835289883254723e+03
1.7556000000000000e+05 2.3933247234911607e+06 -4.5853427506960218e+05 -6.6560397158437399e+06 -6.9000146586386145e+03 -2.0342953936700824e+03 -2.3422928649637670e+03
1.7562000000000000e+05 1.9742971849213147e+06 -5.7777056083336787e+05 -6.7831039760754965e+06 -7.0627454451435960e+03 -1.9386793958128637e+03 -1.8917631077038209e+03
1.7568000000000000e+05 1.5463750670583618e+06 -6.9099590979137167e+05 -6.8829023258589227e+06 -7.1963892333247377e+03 -1.8340402824466755e+03 -1.4337340595429093e+03
1.7574000000000000e+05 1.1113219478485885e+06 -7.9768900488569739e+05 -6.9550393003977695e+06 -7.3003545419550264e+03 -1.7210536415196666e+03 -9.7002654500326548e+02
1.7580000000000000e+05 6.7093329113075044e+05 -8.9737017754748370e+05 -6.9992293183825333e+06 -7.3741704134875681e+03 -1.6004315429144597e+03 -5.0248130806169968e+02
1.7586000000000000e+05 2.2702916156738056e+05 -9.8960348341881449e+05 -7.0152976812697360e+06 -7.4174881131653829e+03 -1.4729187380126791e+03 -3.2952462714360351e+01
1.7592000000000000e+05 -2.1855315153330367e+05 -1.0739985471539116e+06 -7.0031811797285499e+06 -7.4300824637809183e+03 -1.3392887657803126e+03 4.3669904523973321e+02
1.7598000000000000e+05 -6.6396657981467561e+05 -1.1502121710536866e+06 -6.9629283078010026e+06 -7.4118528209376245e+03 -1.2003399774428144e+03 9.0461196887738993e+02
1.7604000000000000e+05 -1.1073617691989280e+06 -1.2179497029458396e+06 -6.8946990850784974e+06 -7.3628236895371119e+03 -1.0568914906458988e+03 1.3689312879618519e+03
1.7610000000000000e+05 -1.5468945993987997e+06 -1.2769661593947571e+06 -6.7987644869113835e+06 -7.2831449779024188e+03 -9.0977908305304572e+02 1.8278147389036037e+03
1.7616000000000000e+05 -1.9807337074380659e+06 -1.3270671008596516e+06 -6.6755054824386155e+06 -7.1730918816707153e+03 -7.5985103486783191e+02 2.2794393506252445e+03
1.7622000000000000e+05 -2.4070679927662690e+06 -1.3681092560430211e+06 -6.5254116800045697e+06 -7.0330643855016724e+03 -6.0796392953712723e+02 2.7220079884732208e+03
1.7628000000000000e+05 -2.8241140803609919e+06 -1.4000008931809354e+06 -6.3490795795767149e+06 -6.8635863671149391e+03 -4.5497842224110479e+02 3.1537559049886681e+03
1.7634000000000000e+05 -3.2301237174912188e+06 -1.4227019366678661e+06 -6.1472104319009474e+06 -6.6653042851884757e+03 -3.0175498634224130e+02 3.5729572928853918e+03
1.7640000000000000e+05 -3.6233910785066858e+06 -1.4362238280301322e+06 -5.9206077045823690e+06 -6.4389854305649451e+03 -1.4914964900495005e+02 3.9779318309575137e+03
1.7646000000000000e+05 -4.0022599508039420e+06 -1.4406291309821510e+06 -5.6701741559751853e+06 -6.1855157190695045e+03 1.9902714961830270e+00 4.3670512086892904e+03
1.7652000000000000e+05 -4.3651307738191606e+06 -1.4360308810982869e+06 -5.3969085187785653e+06 -5.9058970041893472e+03 1.5083041268556119e+02 4.7387456099997262e+03
1.7658000000000000e+05 -4.7104675016353903e+06 -1.4225916815314777e+06 -5.1019017965675425e+06 -5.6012438889639752e+03 2.9655358316174681e+02 5.0915101310928248e+03
1.7664000000000000e+05 -5.0368042586271707e+06 -1.4005225472164454e+06 -4.7863331781449625e+06 -5.2727800187190496e+03 4.3836392852614546e+02 5.4239111020035507e+03
1.7670000000000000e+05 -5.3427517565726563e+06 -1.3700815011127281e+06 -4.4514655765679507e+06 -4.9218338397301477e+03 5.7549102838022532e+02 5.7345922763489343e+03
1.7676000000000000e+05 -5.6270034409068134e+06 -1.3315719272699286e+06 -4.0986408019603682e+06 -4.5498338134726773e+03 7.0719390301205715e+02 6.0222808492162530e+03
1.7682000000000000e+05 -5.8883413333364818e+06 -1.2853406868268731e+06 -3.7292743797322824e+06 -4.1583030816991277e+03 8.3276490677076254e+02 6.2857932592438501e+03
1.7688000000000000e+05 -6.1256415379415350e+06 -1.2317760044747260e+06 -3.3448500285462397e+06 -3.7488535840530153e+03 9.5153348376439362e+02 6.5240407279425517e+03
1.7694000000000000e+05 -6.3378793781995084e+06 -1.1713051344045526e+06 -2.9469138152373293e+06 -3.3231796371024520e+03 1.0628697604943841e+03 6.7360344873176973e+03
1.7700000000000000e+05 -6.5241341331247939e+06 -1.1043918162990885e+06 -2.5370680068512717e+06 -2.8830509913625565e+03 1.1661879494274629e+03 6.9208906459903501e+03
1.7706000000000000e+05 -6.6835933419370381e+06 -1.0315335334916856e+06 -2.1169646429383648e+06 -2.4303053908464394e+03 1.2609495373606703e+03 7.0778346443619967e+03
1.7712000000000000e+05 -6.8155566483753566e+06 -9.5325858697175805e+05 -1.6882988541592024e+06 -1.9668406677046785e+03 1.3466662327984889e+03 7.2062052509534396e+03
1.7718000000000000e+05 -6.9194391579512758e+06 -8.7012300043671590e+05 -1.2528019560489436e+06 -1.4946064123410749e+03 1.4229026474547559e+03 7.3054580548698787e+03
1.7724000000000000e+05 -6.9947742840680415e+06 -7.8270727304101340e+05 -8.1223434937307297e+05 -1.0155952667825024e+03 1.4892786884226896e+03 7.3751684133542412e+03
1.7730000000000000e+05 -7.0412160619922942e+06 -6.9161299784408382e+05 -3.6837826082583301e+05 -5.3183389580704716e+02 1.5454716395077423e+03 7.4150338184996608e+03
1.7736000000000000e+05 -7.0585409131030189e+06 -5.9745936517790507e+05 7.6969640195913060e+04 -4.5373696180053415e+01 1.5912179126588235e+03 7.4248756532745720e+03
1.7742000000000000e+05 -7.0466488456017775e+06 -5.0087957121661998e+05 5.2200571141269529e+05 4.4171869086575799e+02 1.6263144533115944e+03 7.4046403139094318e+03
1.7748000000000000e+05 -7.0055640818826826e+06 -4.0251715290686843e+05 9.6492685558354610e+05 9.2737099520265303e+02 1.6506197867082351e+03 7.3543996832142311e+03
1.7754000000000000e+05 -6.9354351069514258e+06 -3.0302227109241759e+05 1.4039380473326123e+06 1.4095149904837938e+03 1.6640546958004829e+03 7.2743509473296317e+03
1.7760000000000000e+05 -6.8365341365706027e+06 -2.0304796412087869e+05 1.8372598294676945e+06 1.8860961521266495e+03 1.6666025250876487e+03 7.1648157565372103e+03
1.7766000000000000e+05 -6.7092560081075383e+06 -1.0324639444816069e+05 2.2631357396461046e+06 2.3550832293773610e+03 1.6583091085916251e+03 7.0262387388322149e+03
1.7772000000000000e+05 -6.5541165012870478e+06 -4.2651107510532183e+03 2.6798396289894376e+06 2.8144776621906590e+03 1.6392823240261202e+03 6.8591853827664581e+03
1.7778000000000000e+05 -6.3717501001222674e+06 9.3256652175055176e+04 3.0856828354530092e+06 3.2623227769438549e+03 1.6096912789782741e+03 6.6643393133767731e+03
1.7784000000000000e+05 -6.1629072111358400e+06 1.8869161391153437e+05 3.4790211763794119e+06 3.6967126994921337e+03 1.5697651384916144e+03 6.4424989916232025e+03
1.7790000000000000e+05 -5.9284508565230984e+06 2.8142800814420125e+05 3.8582617266624905e+06 4.1158009296105756e+03 1.5197916067330623e+03 6.1945738734932493e+03
1.7796000000000000e+05 -5.6693528640889721e+06 3.7087304131324193e+05 4.2218693512634439e+06 4.5178085272695625e+03 1.4601150783666510e+03 5.9215800696348369e+03
1.7802000000000000e+05 -5.3866895785667468e+06 4.5645623088927695e+05 4.5683729633859452e+06 4.9010318682329325e+03 1.3911344777817792e+03 5.6246355499538477e+03
1.7808000000000000e+05 -5.0816371212664293e+06 5.3763260513355245e+05 4.8963714823640129e+06 5.2638499339201744e+03 1.3133008063871719e+03 5.3049549399815696e+03
END Ephemeris
